STARLINK-1895           
1 47175U 20088BF  21253.82844264  .00001194  00000-0  99080-4 0  9998
2 47175  53.0551  87.7167 0001615  79.6873 280.4298 15.06398094 44808
STARLINK-1907           
1 47177U 20088BH  21253.87912329  .00001388  00000-0  11207-3 0  9992
2 47177  53.0551  97.5134 0001633  98.1785 261.9389 15.06395081 44674
STARLINK-1912           
1 47178U 20088BJ  21253.85977738 -.00000094  00000-0  12588-4 0  9994
2 47178  53.0543 107.5806 0001699  74.3375 285.7801 15.06396740 44527
STARLINK-1913           
1 47179U 20088BK  21253.84779152  .00001099  00000-0  92670-4 0  9999
2 47179  53.0535 117.6493 0001805  77.5941 282.5250 15.06395387 44389
STARLINK-1914           
1 47180U 20088BL  21254.03074420  .00237861  00000-0  39497-2 0  9993
2 47180  53.0506 108.9357 0000974 102.9106 257.2011 15.50748197 44770
STARLINK-1927           
1 47181U 20088BM  21253.75472202  .00001342  00000-0  10898-3 0  9990
2 47181  53.0551  88.0553 0002300  86.5792 273.5460 15.06402793 44791
STARLINK-1952           
1 47349U 21005A   21254.12119134  .00002699  00000-0  71436-4 0  9992
2 47349  53.0515 223.5573 0001342  86.2220 273.8938 15.42171205 36473
STARLINK-2011           
1 47350U 21005B   21254.12516722  .00001225  00000-0  10116-3 0  9999
2 47350  53.0524 226.4530 0001297  82.7087 277.4050 15.06393047 36443
STARLINK-2017           
1 47351U 21005C   21253.22578873 -.00000317  00000-0 -23750-5 0  9998
2 47351  53.0516 190.4448 0001915  37.9724 322.1399 15.06398488 36853
STARLINK-2034           
1 47352U 21005D   21254.10672512  .00001819  00000-0  14093-3 0  9996
2 47352  53.0542 226.4753 0001627  58.9259 301.1890 15.06410780 36424
STARLINK-2045           
1 47353U 21005E   21253.79665856 -.00002045  00000-0 -11844-3 0  9999
2 47353  53.0552 172.8583 0002120  69.8595 290.2622 15.06388626 36495
STARLINK-2046           
1 47354U 21005F   21253.07973222  .00000030  00000-0  20925-4 0  9991
2 47354  53.0548 196.0961 0001432  53.9387 306.1735 15.06405887 36106
STARLINK-2047           
1 47355U 21005G   21254.01456251 -.00001837  00000-0 -10448-3 0  9991
2 47355  53.0514 176.9045 0001960  60.3808 299.7376 15.06391589 37119
STARLINK-2049           
1 47356U 21005H   21254.07632059  .00000087  00000-0  24717-4 0  9999
2 47356  53.0553 196.6219 0001740  54.4209 305.6942 15.06394547 37135
STARLINK-2050           
1 47357U 21005J   21253.88557015 -.00000400  00000-0 -79838-5 0  9992
2 47357  53.0557 227.4837 0001630  62.3766 297.7388 15.06398874 35739
STARLINK-2055           
1 47358U 21005K   21253.88833710  .00000883  00000-0  78188-4 0  9991
2 47358  53.0547 197.4581 0001736  61.3469 298.7695 15.06392621 36150
STARLINK-2069           
1 47359U 21005L   21254.09796614  .00001222  00000-0  10088-3 0  9999
2 47359  53.0554 221.5224 0001381  58.8446 301.2678 15.06406706 36492
