[{"OBJECT_NAME":"STARLINK-1895","OBJECT_ID":"2020-088BF","EPOCH":"2021-09-10T19:52:57.444096","MEAN_MOTION":15.06398094,"ECCENTRICITY":0.0001615,"INCLINATION":53.0551,"RA_OF_ASC_NODE":87.7167,"ARG_OF_PERICENTER":79.6873,"MEAN_ANOMALY":280.4298,"EPHEMERIS_TYPE":0,"CLASSIFICATION_TYPE":"U","NORAD_CAT_ID":47175,"ELEMENT_SET_NO":999,"REV_AT_EPOCH":4480,"BSTAR":9.908e-5,"MEAN_MOTION_DOT":1.194e-5,"MEAN_MOTION_DDOT":0},{"OBJECT_NAME":"STARLINK-1907","OBJECT_ID":"2020-088BH","EPOCH":"2021-09-10T21:05:56.252256","MEAN_MOTION":15.06395081,"ECCENTRICITY":0.0001633,"INCLINATION":53.0551,"RA_OF_ASC_NODE":97.5134,"ARG_OF_PERICENTER":98.1785,"MEAN_ANOMALY":261.9389,"EPHEMERIS_TYPE":0,"CLASSIFICATION_TYPE":"U","NORAD_CAT_ID":47177,"ELEMENT_SET_NO":999,"REV_AT_EPOCH":4467,"BSTAR":0.00011207,"MEAN_MOTION_DOT":1.388e-5,"MEAN_MOTION_DDOT":0},{"OBJECT_NAME":"STARLINK-1912","OBJECT_ID":"2020-088BJ","EPOCH":"2021-09-10T20:38:04.765632","MEAN_MOTION":15.0639674,"ECCENTRICITY":0.0001699,"INCLINATION":53.0543,"RA_OF_ASC_NODE":107.5806,"ARG_OF_PERICENTER":74.3375,"MEAN_ANOMALY":285.7801,"EPHEMERIS_TYPE":0,"CLASSIFICATION_TYPE":"U","NORAD_CAT_ID":47178,"ELEMENT_SET_NO":999,"REV_AT_EPOCH":4452,"BSTAR":1.2588e-5,"MEAN_MOTION_DOT":-9.4e-7,"MEAN_MOTION_DDOT":0},{"OBJECT_NAME":"STARLINK-1913","OBJECT_ID":"2020-088BK","EPOCH":"2021-09-10T20:20:49.187328","MEAN_MOTION":15.06395387,"ECCENTRICITY":0.0001805,"INCLINATION":53.0535,"RA_OF_ASC_NODE":117.6493,"ARG_OF_PERICENTER":77.5941,"MEAN_ANOMALY":282.525,"EPHEMERIS_TYPE":0,"CLASSIFICATION_TYPE":"U","NORAD_CAT_ID":47179,"ELEMENT_SET_NO":999,"REV_AT_EPOCH":4438,"BSTAR":9.267e-5,"MEAN_MOTION_DOT":1.099e-5,"MEAN_MOTION_DDOT":0},{"OBJECT_NAME":"STARLINK-1914","OBJECT_ID":"2020-088BL","EPOCH":"2021-09-11T00:44:16.298880","MEAN_MOTION":15.50748197,"ECCENTRICITY":9.74e-5,"INCLINATION":53.0506,"RA_OF_ASC_NODE":108.9357,"ARG_OF_PERICENTER":102.9106,"MEAN_ANOMALY":257.2011,"EPHEMERIS_TYPE":0,"CLASSIFICATION_TYPE":"U","NORAD_CAT_ID":47180,"ELEMENT_SET_NO":999,"REV_AT_EPOCH":4477,"BSTAR":0.0039497,"MEAN_MOTION_DOT":0.00237861,"MEAN_MOTION_DDOT":0},{"OBJECT_NAME":"STARLINK-1927","OBJECT_ID":"2020-088BM","EPOCH":"2021-09-10T18:06:47.982528","MEAN_MOTION":15.06402793,"ECCENTRICITY":0.00023,"INCLINATION":53.0551,"RA_OF_ASC_NODE":88.0553,"ARG_OF_PERICENTER":86.5792,"MEAN_ANOMALY":273.546,"EPHEMERIS_TYPE":0,"CLASSIFICATION_TYPE":"U","NORAD_CAT_ID":47181,"ELEMENT_SET_NO":999,"REV_AT_EPOCH":4479,"BSTAR":0.00010898,"MEAN_MOTION_DOT":1.342e-5,"MEAN_MOTION_DDOT":0},{"OBJECT_NAME":"STARLINK-1952","OBJECT_ID":"2021-005A","EPOCH":"2021-09-11T02:54:30.931776","MEAN_MOTION":15.42171205,"ECCENTRICITY":0.0001342,"INCLINATION":53.0515,"RA_OF_ASC_NODE":223.5573,"ARG_OF_PERICENTER":86.222,"MEAN_ANOMALY":273.8938,"EPHEMERIS_TYPE":0,"CLASSIFICATION_TYPE":"U","NORAD_CAT_ID":47349,"ELEMENT_SET_NO":999,"REV_AT_EPOCH":3647,"BSTAR":7.1436e-5,"MEAN_MOTION_DOT":2.699e-5,"MEAN_MOTION_DDOT":0},{"OBJECT_NAME":"STARLINK-2011","OBJECT_ID":"2021-005B","EPOCH":"2021-09-11T03:00:14.447808","MEAN_MOTION":15.06393047,"ECCENTRICITY":0.0001297,"INCLINATION":53.0524,"RA_OF_ASC_NODE":226.453,"ARG_OF_PERICENTER":82.7087,"MEAN_ANOMALY":277.405,"EPHEMERIS_TYPE":0,"CLASSIFICATION_TYPE":"U","NORAD_CAT_ID":47350,"ELEMENT_SET_NO":999,"REV_AT_EPOCH":3644,"BSTAR":0.00010116,"MEAN_MOTION_DOT":1.225e-5,"MEAN_MOTION_DDOT":0},{"OBJECT_NAME":"STARLINK-2017","OBJECT_ID":"2021-005C","EPOCH":"2021-09-10T05:25:08.146272","MEAN_MOTION":15.06398488,"ECCENTRICITY":0.0001915,"INCLINATION":53.0516,"RA_OF_ASC_NODE":190.4448,"ARG_OF_PERICENTER":37.9724,"MEAN_ANOMALY":322.1399,"EPHEMERIS_TYPE":0,"CLASSIFICATION_TYPE":"U","NORAD_CAT_ID":47351,"ELEMENT_SET_NO":999,"REV_AT_EPOCH":3685,"BSTAR":-2.375e-6,"MEAN_MOTION_DOT":-3.17e-6,"MEAN_MOTION_DDOT":0},{"OBJECT_NAME":"STARLINK-2034","OBJECT_ID":"2021-005D","EPOCH":"2021-09-11T02:33:41.050368","MEAN_MOTION":15.0641078,"ECCENTRICITY":0.0001627,"INCLINATION":53.0542,"RA_OF_ASC_NODE":226.4753,"ARG_OF_PERICENTER":58.9259,"MEAN_ANOMALY":301.189,"EPHEMERIS_TYPE":0,"CLASSIFICATION_TYPE":"U","NORAD_CAT_ID":47352,"ELEMENT_SET_NO":999,"REV_AT_EPOCH":3642,"BSTAR":0.00014093,"MEAN_MOTION_DOT":1.819e-5,"MEAN_MOTION_DDOT":0},{"OBJECT_NAME":"STARLINK-2045","OBJECT_ID":"2021-005E","EPOCH":"2021-09-10T19:07:11.299584","MEAN_MOTION":15.06388626,"ECCENTRICITY":0.000212,"INCLINATION":53.0552,"RA_OF_ASC_NODE":172.8583,"ARG_OF_PERICENTER":69.8595,"MEAN_ANOMALY":290.2622,"EPHEMERIS_TYPE":0,"CLASSIFICATION_TYPE":"U","NORAD_CAT_ID":47353,"ELEMENT_SET_NO":999,"REV_AT_EPOCH":3649,"BSTAR":-0.00011844,"MEAN_MOTION_DOT":-2.045e-5,"MEAN_MOTION_DDOT":0},{"OBJECT_NAME":"STARLINK-2046","OBJECT_ID":"2021-005F","EPOCH":"2021-09-10T01:54:48.863808","MEAN_MOTION":15.06405887,"ECCENTRICITY":0.0001432,"INCLINATION":53.0548,"RA_OF_ASC_NODE":196.0961,"ARG_OF_PERICENTER":53.9387,"MEAN_ANOMALY":306.1735,"EPHEMERIS_TYPE":0,"CLASSIFICATION_TYPE":"U","NORAD_CAT_ID":47354,"ELEMENT_SET_NO":999,"REV_AT_EPOCH":3610,"BSTAR":2.0925e-5,"MEAN_MOTION_DOT":3.0e-7,"MEAN_MOTION_DDOT":0},{"OBJECT_NAME":"STARLINK-2047","OBJECT_ID":"2021-005G","EPOCH":"2021-09-11T00:20:58.200864","MEAN_MOTION":15.06391589,"ECCENTRICITY":0.000196,"INCLINATION":53.0514,"RA_OF_ASC_NODE":176.9045,"ARG_OF_PERICENTER":60.3808,"MEAN_ANOMALY":299.7376,"EPHEMERIS_TYPE":0,"CLASSIFICATION_TYPE":"U","NORAD_CAT_ID":47355,"ELEMENT_SET_NO":999,"REV_AT_EPOCH":3711,"BSTAR":-0.00010448,"MEAN_MOTION_DOT":-1.837e-5,"MEAN_MOTION_DDOT":0},{"OBJECT_NAME":"STARLINK-2049","OBJECT_ID":"2021-005H","EPOCH":"2021-09-11T01:49:54.098976","MEAN_MOTION":15.06394547,"ECCENTRICITY":0.000174,"INCLINATION":53.0553,"RA_OF_ASC_NODE":196.6219,"ARG_OF_PERICENTER":54.4209,"MEAN_ANOMALY":305.6942,"EPHEMERIS_TYPE":0,"CLASSIFICATION_TYPE":"U","NORAD_CAT_ID":47356,"ELEMENT_SET_NO":999,"REV_AT_EPOCH":3713,"BSTAR":2.4717e-5,"MEAN_MOTION_DOT":8.7e-7,"MEAN_MOTION_DDOT":0},{"OBJECT_NAME":"STARLINK-2050","OBJECT_ID":"2021-005J","EPOCH":"2021-09-10T21:15:13.260960","MEAN_MOTION":15.06398874,"ECCENTRICITY":0.000163,"INCLINATION":53.0557,"RA_OF_ASC_NODE":227.4837,"ARG_OF_PERICENTER":62.3766,"MEAN_ANOMALY":297.7388,"EPHEMERIS_TYPE":0,"CLASSIFICATION_TYPE":"U","NORAD_CAT_ID":47357,"ELEMENT_SET_NO":999,"REV_AT_EPOCH":3573,"BSTAR":-7.9838e-6,"MEAN_MOTION_DOT":-4.0e-6,"MEAN_MOTION_DDOT":0},{"OBJECT_NAME":"STARLINK-2055","OBJECT_ID":"2021-005K","EPOCH":"2021-09-10T21:19:12.325440","MEAN_MOTION":15.06392621,"ECCENTRICITY":0.0001736,"INCLINATION":53.0547,"RA_OF_ASC_NODE":197.4581,"ARG_OF_PERICENTER":61.3469,"MEAN_ANOMALY":298.7695,"EPHEMERIS_TYPE":0,"CLASSIFICATION_TYPE":"U","NORAD_CAT_ID":47358,"ELEMENT_SET_NO":999,"REV_AT_EPOCH":3615,"BSTAR":7.8188e-5,"MEAN_MOTION_DOT":8.83e-6,"MEAN_MOTION_DDOT":0},{"OBJECT_NAME":"STARLINK-2069","OBJECT_ID":"2021-005L","EPOCH":"2021-09-11T02:21:04.274496","MEAN_MOTION":15.06406706,"ECCENTRICITY":0.0001381,"INCLINATION":53.0554,"RA_OF_ASC_NODE":221.5224,"ARG_OF_PERICENTER":58.8446,"MEAN_ANOMALY":301.2678,"EPHEMERIS_TYPE":0,"CLASSIFICATION_TYPE":"U","NORAD_CAT_ID":47359,"ELEMENT_SET_NO":999,"REV_AT_EPOCH":3649,"BSTAR":0.00010088,"MEAN_MOTION_DOT":1.222e-5,"MEAN_MOTION_DDOT":0}]
